[{"OBJECT_NAME":"YUNYAO-1 43","OBJECT_ID":"2025-059A","EPOCH":"2026-03-09T23:54:24.516576","MEAN_MOTION":15.10329109,"ECCENTRICITY":0.00157026,"INCLINATION":97.608,"RA_OF_ASC_NODE":250.9377,"ARG_OF_PERICENTER":132.1084,"MEAN_ANOMALY":228.1483,"EPHEMERIS_TYPE":0,"CLASSIFICATION_TYPE":"U","NORAD_CAT_ID":63344,"ELEMENT_SET_NO":999,"REV_AT_EPOCH":5332,"BSTAR":0.00032498885,"MEAN_MOTION_DOT":5.279e-5,"MEAN_MOTION_DDOT":0},{"OBJECT_NAME":"STARLINK-34708","OBJECT_ID":"2025-165G","EPOCH":"2026-03-09T17:09:33.266304","MEAN_MOTION":15.05666348,"ECCENTRICITY":0.00012979,"INCLINATION":97.6013,"RA_OF_ASC_NODE":147.2452,"ARG_OF_PERICENTER":85.8737,"MEAN_ANOMALY":274.2639,"EPHEMERIS_TYPE":0,"CLASSIFICATION_TYPE":"U","NORAD_CAT_ID":65062,"ELEMENT_SET_NO":999,"REV_AT_EPOCH":3479,"BSTAR":0.0013605964,"MEAN_MOTION_DOT":0.00019634,"MEAN_MOTION_DDOT":0}]
